CCSDS_OMM_VERS = 2.0
CREATION_DATE  = 
ORIGINATOR     = 

OBJECT_NAME    = DELTA 2 R/B(1)
OBJECT_ID      = 1990-008B
CENTER_NAME    = EARTH
REF_FRAME      = TEME
TIME_SYSTEM    = UTC
MEAN_ELEMENT_THEORY = SGP/SGP4

EPOCH          = 2026-02-11T05:28:46.797888
MEAN_MOTION    = 15.52295131
ECCENTRICITY   = .00930184
INCLINATION    = 35.6052
RA_OF_ASC_NODE = 348.0198
ARG_OF_PERICENTER = 11.5144
MEAN_ANOMALY   = 348.7693

EPHEMERIS_TYPE = 0
CLASSIFICATION_TYPE = U
NORAD_CAT_ID   = 20453
ELEMENT_SET_NO = 999
REV_AT_EPOCH   = 92201
BSTAR          = .10491027E-2
MEAN_MOTION_DOT = .80086E-3
MEAN_MOTION_DDOT = 0

CCSDS_OMM_VERS = 2.0
CREATION_DATE  = 
ORIGINATOR     = 

OBJECT_NAME    = COSMOS 2058
OBJECT_ID      = 1990-010A
CENTER_NAME    = EARTH
REF_FRAME      = TEME
TIME_SYSTEM    = UTC
MEAN_ELEMENT_THEORY = SGP/SGP4

EPOCH          = 2026-02-11T13:25:47.051904
MEAN_MOTION    = 15.11077571
ECCENTRICITY   = .00117851
INCLINATION    = 82.4648
RA_OF_ASC_NODE = 73.1698
ARG_OF_PERICENTER = 69.9601
MEAN_ANOMALY   = 290.2896

EPHEMERIS_TYPE = 0
CLASSIFICATION_TYPE = U
NORAD_CAT_ID   = 20465
ELEMENT_SET_NO = 999
REV_AT_EPOCH   = 93829
BSTAR          = .26699348E-3
MEAN_MOTION_DOT = .4502E-4
MEAN_MOTION_DDOT = 0

CCSDS_OMM_VERS = 2.0
CREATION_DATE  = 
ORIGINATOR     = 

OBJECT_NAME    = SL-14 R/B
OBJECT_ID      = 1990-010B
CENTER_NAME    = EARTH
REF_FRAME      = TEME
TIME_SYSTEM    = UTC
MEAN_ELEMENT_THEORY = SGP/SGP4

EPOCH          = 2026-02-11T02:42:22.179744
MEAN_MOTION    = 14.83545760
ECCENTRICITY   = .00206518
INCLINATION    = 82.5024
RA_OF_ASC_NODE = 292.3547
ARG_OF_PERICENTER = 31.3571
MEAN_ANOMALY   = 328.8871

EPHEMERIS_TYPE = 0
CLASSIFICATION_TYPE = U
NORAD_CAT_ID   = 20466
ELEMENT_SET_NO = 999
REV_AT_EPOCH   = 92454
BSTAR          = .54578741E-4
MEAN_MOTION_DOT = .475E-5
MEAN_MOTION_DDOT = 0

CCSDS_OMM_VERS = 2.0
CREATION_DATE  = 
ORIGINATOR     = 

OBJECT_NAME    = SL-14 R/B
OBJECT_ID      = 1990-018B
CENTER_NAME    = EARTH
REF_FRAME      = TEME
TIME_SYSTEM    = UTC
MEAN_ELEMENT_THEORY = SGP/SGP4

EPOCH          = 2026-02-11T13:51:37.569888
MEAN_MOTION    = 14.82116816
ECCENTRICITY   = .00164307
INCLINATION    = 82.5180
RA_OF_ASC_NODE = 247.5018
ARG_OF_PERICENTER = 173.0664
MEAN_ANOMALY   = 187.0781

EPHEMERIS_TYPE = 0
CLASSIFICATION_TYPE = U
NORAD_CAT_ID   = 20511
ELEMENT_SET_NO = 999
REV_AT_EPOCH   = 91871
BSTAR          = .52796618E-4
MEAN_MOTION_DOT = .444E-5
MEAN_MOTION_DDOT = 0

CCSDS_OMM_VERS = 2.0
CREATION_DATE  = 
ORIGINATOR     = 

OBJECT_NAME    = HST
OBJECT_ID      = 1990-037B
CENTER_NAME    = EARTH
REF_FRAME      = TEME
TIME_SYSTEM    = UTC
MEAN_ELEMENT_THEORY = SGP/SGP4

EPOCH          = 2026-02-11T12:18:17.551296
MEAN_MOTION    = 15.29061194
ECCENTRICITY   = .00015826
INCLINATION    = 28.4659
RA_OF_ASC_NODE = 218.5154
ARG_OF_PERICENTER = 165.2269
MEAN_ANOMALY   = 194.8373

EPHEMERIS_TYPE = 0
CLASSIFICATION_TYPE = U
NORAD_CAT_ID   = 20580
ELEMENT_SET_NO = 999
REV_AT_EPOCH   = 76930
BSTAR          = .28858923E-3
MEAN_MOTION_DOT = .8612E-4
MEAN_MOTION_DDOT = 0

CCSDS_OMM_VERS = 2.0
CREATION_DATE  = 
ORIGINATOR     = 

OBJECT_NAME    = SL-16 R/B
OBJECT_ID      = 1990-046B
CENTER_NAME    = EARTH
REF_FRAME      = TEME
TIME_SYSTEM    = UTC
MEAN_ELEMENT_THEORY = SGP/SGP4

EPOCH          = 2026-02-11T07:54:00.011520
MEAN_MOTION    = 14.15007704
ECCENTRICITY   = .00148714
INCLINATION    = 71.0008
RA_OF_ASC_NODE = 353.2727
ARG_OF_PERICENTER = 336.3512
MEAN_ANOMALY   = 23.6925

EPHEMERIS_TYPE = 0
CLASSIFICATION_TYPE = U
NORAD_CAT_ID   = 20625
ELEMENT_SET_NO = 999
REV_AT_EPOCH   = 84466
BSTAR          = .17977698E-3
MEAN_MOTION_DOT = .301E-5
MEAN_MOTION_DDOT = 0

CCSDS_OMM_VERS = 2.0
CREATION_DATE  = 
ORIGINATOR     = 

OBJECT_NAME    = COSMOS 2084
OBJECT_ID      = 1990-055A
CENTER_NAME    = EARTH
REF_FRAME      = TEME
TIME_SYSTEM    = UTC
MEAN_ELEMENT_THEORY = SGP/SGP4

EPOCH          = 2026-02-11T11:40:47.739360
MEAN_MOTION    = 15.05479095
ECCENTRICITY   = .00212328
INCLINATION    = 62.7896
RA_OF_ASC_NODE = 64.9350
ARG_OF_PERICENTER = 184.4558
MEAN_ANOMALY   = 175.6357

EPHEMERIS_TYPE = 0
CLASSIFICATION_TYPE = U
NORAD_CAT_ID   = 20663
ELEMENT_SET_NO = 999
REV_AT_EPOCH   = 93237
BSTAR          = .20929536E-3
MEAN_MOTION_DOT = .2834E-4
MEAN_MOTION_DDOT = 0

CCSDS_OMM_VERS = 2.0
CREATION_DATE  = 
ORIGINATOR     = 

OBJECT_NAME    = SL-6 R/B(2)
OBJECT_ID      = 1990-055D
CENTER_NAME    = EARTH
REF_FRAME      = TEME
TIME_SYSTEM    = UTC
MEAN_ELEMENT_THEORY = SGP/SGP4

EPOCH          = 2026-02-11T05:37:25.626432
MEAN_MOTION    = 15.03457534
ECCENTRICITY   = .00208014
INCLINATION    = 62.7847
RA_OF_ASC_NODE = 343.8062
ARG_OF_PERICENTER = 339.7259
MEAN_ANOMALY   = 20.3012

EPHEMERIS_TYPE = 0
CLASSIFICATION_TYPE = U
NORAD_CAT_ID   = 20666
ELEMENT_SET_NO = 999
REV_AT_EPOCH   = 93421
BSTAR          = .23806073E-3
MEAN_MOTION_DOT = .3073E-4
MEAN_MOTION_DDOT = 0

CCSDS_OMM_VERS = 2.0
CREATION_DATE  = 
ORIGINATOR     = 

OBJECT_NAME    = SL-8 R/B
OBJECT_ID      = 1990-078B
CENTER_NAME    = EARTH
REF_FRAME      = TEME
TIME_SYSTEM    = UTC
MEAN_ELEMENT_THEORY = SGP/SGP4

EPOCH          = 2026-02-11T15:06:29.300256
MEAN_MOTION    = 14.88194566
ECCENTRICITY   = .03667724
INCLINATION    = 82.9020
RA_OF_ASC_NODE = 274.7308
ARG_OF_PERICENTER = 101.3119
MEAN_ANOMALY   = 262.9541

EPHEMERIS_TYPE = 0
CLASSIFICATION_TYPE = U
NORAD_CAT_ID   = 20775
ELEMENT_SET_NO = 999
REV_AT_EPOCH   = 80542
BSTAR          = .46640279E-3
MEAN_MOTION_DOT = .15854E-3
MEAN_MOTION_DDOT = 0

CCSDS_OMM_VERS = 2.0
CREATION_DATE  = 
ORIGINATOR     = 

OBJECT_NAME    = SL-8 R/B
OBJECT_ID      = 1991-006B
CENTER_NAME    = EARTH
REF_FRAME      = TEME
TIME_SYSTEM    = UTC
MEAN_ELEMENT_THEORY = SGP/SGP4

EPOCH          = 2026-02-11T13:11:56.252832
MEAN_MOTION    = 13.77492167
ECCENTRICITY   = .00237247
INCLINATION    = 82.9438
RA_OF_ASC_NODE = 189.4791
ARG_OF_PERICENTER = 107.8932
MEAN_ANOMALY   = 324.1144

EPHEMERIS_TYPE = 0
CLASSIFICATION_TYPE = U
NORAD_CAT_ID   = 21088
ELEMENT_SET_NO = 999
REV_AT_EPOCH   = 76047
BSTAR          = .17609297E-4
MEAN_MOTION_DOT = .33E-6
MEAN_MOTION_DDOT = 0

CCSDS_OMM_VERS = 2.0
CREATION_DATE  = 
ORIGINATOR     = 

OBJECT_NAME    = OKEAN-3
OBJECT_ID      = 1991-039A
CENTER_NAME    = EARTH
REF_FRAME      = TEME
TIME_SYSTEM    = UTC
MEAN_ELEMENT_THEORY = SGP/SGP4

EPOCH          = 2026-02-11T08:16:41.492352
MEAN_MOTION    = 15.04593187
ECCENTRICITY   = .00164643
INCLINATION    = 82.5176
RA_OF_ASC_NODE = 2.3572
ARG_OF_PERICENTER = 63.5586
MEAN_ANOMALY   = 296.7328

EPHEMERIS_TYPE = 0
CLASSIFICATION_TYPE = U
NORAD_CAT_ID   = 21397
ELEMENT_SET_NO = 999
REV_AT_EPOCH   = 86107
BSTAR          = .29885854E-3
MEAN_MOTION_DOT = .4233E-4
MEAN_MOTION_DDOT = 0

CCSDS_OMM_VERS = 2.0
CREATION_DATE  = 
ORIGINATOR     = 

OBJECT_NAME    = COSMOS 2151
OBJECT_ID      = 1991-042A
CENTER_NAME    = EARTH
REF_FRAME      = TEME
TIME_SYSTEM    = UTC
MEAN_ELEMENT_THEORY = SGP/SGP4

EPOCH          = 2026-02-11T14:25:46.644384
MEAN_MOTION    = 15.00005233
ECCENTRICITY   = .00134843
INCLINATION    = 82.4960
RA_OF_ASC_NODE = 108.8431
ARG_OF_PERICENTER = 142.5394
MEAN_ANOMALY   = 217.6772

EPHEMERIS_TYPE = 0
CLASSIFICATION_TYPE = U
NORAD_CAT_ID   = 21422
ELEMENT_SET_NO = 999
REV_AT_EPOCH   = 85928
BSTAR          = .16180912E-3
MEAN_MOTION_DOT = .2042E-4
MEAN_MOTION_DDOT = 0

