DELTA 2 R/B(1)          
1 20453U 90008B   26042.22831942  .00080086  00000+0  10491-2 0  9994
2 20453  35.6052 348.0198 0093018  11.5144 348.7693 15.52295131922015
COSMOS 2058             
1 20465U 90010A   26042.55957236  .00004502  00000+0  26699-3 0  9998
2 20465  82.4648  73.1698 0011785  69.9601 290.2896 15.11077571938290
SL-14 R/B               
1 20466U 90010B   26042.11275671  .00000475  00000+0  54579-4 0  9991
2 20466  82.5024 292.3547 0020651  31.3571 328.8871 14.83545760924541
SL-14 R/B               
1 20511U 90018B   26042.57751817  .00000444  00000+0  52797-4 0  9997
2 20511  82.5180 247.5018 0016430 173.0664 187.0781 14.82116816918719
HST                     
1 20580U 90037B   26042.51270314  .00008612  00000+0  28859-3 0  9992
2 20580  28.4659 218.5154 0001582 165.2269 194.8373 15.29061194769302
SL-16 R/B               
1 20625U 90046B   26042.32916680  .00000301  00000+0  17978-3 0  9991
2 20625  71.0008 353.2727 0014871 336.3512  23.6925 14.15007704844660
COSMOS 2084             
1 20663U 90055A   26042.48666365  .00002834  00000+0  20930-3 0  9997
2 20663  62.7896  64.9350 0021232 184.4558 175.6357 15.05479095932372
SL-6 R/B(2)             
1 20666U 90055D   26042.23432438  .00003073  00000+0  23806-3 0  9996
2 20666  62.7847 343.8062 0020801 339.7259  20.3012 15.03457534934215
SL-8 R/B                
1 20775U 90078B   26042.62950579  .00015854  00000+0  46640-3 0  9997
2 20775  82.9020 274.7308 0366772 101.3119 262.9541 14.88194566805422
SL-8 R/B                
1 21088U 91006B   26042.54995663  .00000033  00000+0  17609-4 0  9998
2 21088  82.9438 189.4791 0023724 107.8932 324.1144 13.77492167760472
OKEAN-3                 
1 21397U 91039A   26042.34492468  .00004233  00000+0  29886-3 0  9995
2 21397  82.5176   2.3572 0016464  63.5586 296.7328 15.04593187861078
COSMOS 2151             
1 21422U 91042A   26042.60123431  .00002042  00000+0  16181-3 0  9998
2 21422  82.4960 108.8431 0013484 142.5394 217.6772 15.00005233859288
